STARLINK-3068
1 29154C 21082AA  21325.18855437  .00022192  00000-0  18569-3 0  3251
2 29154  69.9994 295.5244 0003588 289.5209 142.2616 15.69751796    10
